[{"OBJECT_NAME":"RISAT-2BR1","OBJECT_ID":"2019-089F","EPOCH":"2026-03-09T22:23:56.080608","MEAN_MOTION":15.01632497,"ECCENTRICITY":0.00130957,"INCLINATION":36.9618,"RA_OF_ASC_NODE":340.419,"ARG_OF_PERICENTER":88.0635,"MEAN_ANOMALY":272.1607,"EPHEMERIS_TYPE":0,"CLASSIFICATION_TYPE":"U","NORAD_CAT_ID":44857,"ELEMENT_SET_NO":999,"REV_AT_EPOCH":34227,"BSTAR":0.00042406412,"MEAN_MOTION_DOT":5.543e-5,"MEAN_MOTION_DDOT":0},{"OBJECT_NAME":"BREEZE-KM R\/B","OBJECT_ID":"2016-011B","EPOCH":"2026-03-09T13:46:31.765728","MEAN_MOTION":15.28220455,"ECCENTRICITY":0.0143188,"INCLINATION":98.6722,"RA_OF_ASC_NODE":284.67,"ARG_OF_PERICENTER":63.2473,"MEAN_ANOMALY":298.3333,"EPHEMERIS_TYPE":0,"CLASSIFICATION_TYPE":"U","NORAD_CAT_ID":41336,"ELEMENT_SET_NO":999,"REV_AT_EPOCH":55224,"BSTAR":0.00023628,"MEAN_MOTION_DOT":8.734e-5,"MEAN_MOTION_DDOT":0}]
